TJS-7                   
1 49115U 21077A   26181.63808453 -.00000113  00000+0  00000+0 0  9996
2 49115   0.3218 264.6235 0003522 115.5538  28.7811  1.00271526  9688
CHINASAT 9B             
1 49125U 21080A   26181.83447591  .00000000  00000+0  00000+0 0  9999
2 49125   0.0181  28.2061 0002566  92.1690 200.3288  1.00266470 17780
SES-17                  
1 49332U 21095A   26181.57317333 -.00000261  00000+0  00000+0 0  9996
2 49332   0.0242  41.4677 0001230  56.2884 320.1217  1.00269366 17983
SYRACUSE 4A             
1 49333U 21095B   26180.90274480  .00000000  00000+0  00000+0 0  9998
2 49333   0.0263  31.7327 0001646  73.4859 183.2630  1.00272290 18073
QZS-1R (MICHIBIKI-1R)   
1 49336U 21096A   26181.61077167 -.00000286  00000+0  00000+0 0  9991
2 49336  37.4875  79.3848 0755934 272.0246 280.1673  1.00251640 17145
ZHONGXING-1D            
1 49505U 21114A   26181.68356564 -.00000326  00000+0  00000+0 0  9993
2 49505   0.0408 115.1223 0000655  53.7346 126.1597  1.00270671 16952
EXPRESS AMU-7           
1 50001U 21123A   26181.82905782 -.00000232  00000+0  00000+0 0  9990
2 50001   0.0286 281.3712 0000535 128.6839 312.2922  1.00273650 16673
EXPRESS AMU-3           
1 50002U 21123B   26180.94197627  .00000000  00000+0  00000+0 0  9996
2 50002   0.0197 341.0992 0001085   8.1661  10.7324  1.00278298  7168
TIANLIAN 2-02           
1 50005U 21124A   26181.53326093 -.00000004  00000+0  00000+0 0  9992
2 50005   0.8353  85.9352 0000803 182.4162  13.2038  1.00273312 16753
TURKSAT 5B              
1 50212U 21126A   26181.09576225  .00000157  00000+0  00000+0 0  9997
2 50212   0.0695 338.5766 0002934  27.5791 348.4830  1.00273637 16421
SHIYAN-12 01 (SY-12 01) 
1 50321U 21129A   26181.45361697  .00000143  00000+0  00000+0 0  9991
2 50321   3.7071  79.7386 0003032 294.5079 116.7187  1.00045304 16639
SHIYAN-12 02 (SY-12 02) 
1 50322U 21129B   26181.72386314 -.00000320  00000+0  00000+0 0  9993
2 50322   3.7070  79.7376 0003107  57.7428 141.3373  1.00485451 16630
TJS-9                   
1 50574U 21135A   26181.82758450  .00000000  00000+0  00000+0 0  9998
2 50574   0.0159  42.1561 0003779  21.4738 290.4263  1.00269500 16565
USA 324                 
1 51280U 22006A   26157.08795008 -.00000058  00000+0  00000+0 0  9996
2 51280   0.7690  83.2777 0002840 165.6787 110.1567  1.00289779 16021
GOES 18                 
1 51850U 22021A   26181.77324397  .00000107  00000+0  00000+0 0  9992
2 51850   0.0105  94.5169 0000539  39.6641 286.0207  1.00271074  6729
ZHONGXING-6D            
1 52255U 22038A   26180.88048227 -.00000343  00000+0  00000+0 0  9999
2 52255   0.0165  74.2009 0000395 122.3414 163.4517  1.00272971 15551
CMS-02 (GSAT-24)        
1 52903U 22067A   26180.17706575 -.00000153  00000+0  00000+0 0  9999
2 52903   0.0351 252.6973 0001521 130.3221  40.9976  1.00271288 14723
SES-22                  
1 52933U 22071A   26181.70159240  .00000115  00000+0  00000+0 0  9995
2 52933   0.0177  11.0684 0001314  80.7890 300.4685  1.00271930  7657
WFOV (USA 332)          
1 52940U 22073A   26181.53885858 -.00000354  00000+0  00000+0 0  9993
2 52940   3.7434  78.3653 0001611 259.0937 254.3836  1.00268758 14507
ZHONGXING-1E            
1 53813U 22112A   26181.60262498 -.00000139  00000+0  00000+0 0  9995
2 53813   0.0410 153.7791 0000107 110.2484 313.0045  1.00271554 13980
SES-20                  
1 53960U 22123A   26181.59888514 -.00000090  00000+0  00000+0 0  9997
2 53960   0.0202  59.4918 0002167  39.9780 291.6770  1.00269721 13663
SES-21                  
1 53961U 22123B   26180.99029678  .00000000  00000+0  00000+0 0  9999
2 53961   0.0399  24.7137 0000886  72.6667  46.2618  1.00268246  7347
GALAXY 33 (G-33)        
1 54026U 22128A   26181.70271905  .00000089  00000+0  00000+0 0  9996
2 54026   0.0151  14.5426 0002071  82.5209 301.6861  1.00272821 13871
GALAXY 34 (G-34)        
1 54027U 22128B   26181.70349906  .00000000  00000+0  00000+0 0  9997
2 54027   0.0275  18.0703 0001919  90.3855 294.5804  1.00274607 14041
