OBJECT_NAME,OBJECT_ID,EPOCH,MEAN_MOTION,ECCENTRICITY,INCLINATION,RA_OF_ASC_NODE,ARG_OF_PERICENTER,MEAN_ANOMALY,EPHEMERIS_TYPE,CLASSIFICATION_TYPE,NORAD_CAT_ID,ELEMENT_SET_NO,REV_AT_EPOCH,BSTAR,MEAN_MOTION_DOT,MEAN_MOTION_DDOT
TJS-7,2021-077A,2026-06-30T15:18:50.503392,1.00271526,.00035216,0.3218,264.6235,115.5538,28.7811,0,U,49115,999,968,0,-.113E-5,0
CHINASAT 9B,2021-080A,2026-06-30T20:01:38.718624,1.00266470,.00025659,0.0181,28.2061,92.1690,200.3288,0,U,49125,999,1778,0,0,0
SES-17,2021-095A,2026-06-30T13:45:22.176576,1.00269366,.00012301,0.0242,41.4677,56.2884,320.1217,0,U,49332,999,1798,0,-.261E-5,0
SYRACUSE 4A,2021-095B,2026-06-29T21:39:57.150720,1.00272290,.00016465,0.0263,31.7327,73.4859,183.2630,0,U,49333,999,1807,0,0,0
QZS-1R (MICHIBIKI-1R),2021-096A,2026-06-30T14:39:30.672288,1.00251640,.0755934,37.4875,79.3848,272.0246,280.1673,0,U,49336,999,1714,0,-.286E-5,0
ZHONGXING-1D,2021-114A,2026-06-30T16:24:20.071296,1.00270671,.00006549,0.0408,115.1223,53.7346,126.1597,0,U,49505,999,1695,0,-.326E-5,0
EXPRESS AMU-7,2021-123A,2026-06-30T19:53:50.597376,1.00273650,.00005352,0.0286,281.3712,128.6839,312.2922,0,U,50001,999,1667,0,-.232E-5,0
EXPRESS AMU-3,2021-123B,2026-06-29T22:36:26.749728,1.00278298,.00010852,0.0197,341.0992,8.1661,10.7324,0,U,50002,999,716,0,0,0
TIANLIAN 2-02,2021-124A,2026-06-30T12:47:53.744352,1.00273312,.00008034,0.8353,85.9352,182.4162,13.2038,0,U,50005,999,1675,0,-.4E-7,0
TURKSAT 5B,2021-126A,2026-06-30T02:17:53.858400,1.00273637,.00029344,0.0695,338.5766,27.5791,348.4830,0,U,50212,999,1642,0,.157E-5,0
SHIYAN-12 01 (SY-12 01),2021-129A,2026-06-30T10:53:12.506208,1.00045304,.0003032,3.7071,79.7386,294.5079,116.7187,0,U,50321,999,1663,0,.143E-5,0
SHIYAN-12 02 (SY-12 02),2021-129B,2026-06-30T17:22:21.775296,1.00485451,.0003107,3.7070,79.7376,57.7428,141.3373,0,U,50322,999,1663,0,-.32E-5,0
TJS-9,2021-135A,2026-06-30T19:51:43.300800,1.00269500,.00037787,0.0159,42.1561,21.4738,290.4263,0,U,50574,999,1656,0,0,0
USA 324,2022-006A,2026-06-06T02:06:38.886912,1.00289779,.000284,0.7690,83.2777,165.6787,110.1567,0,U,51280,999,1602,0,-.58E-6,0
GOES 18,2022-021A,2026-06-30T18:33:28.279872,1.00271074,.00005388,0.0105,94.5169,39.6641,286.0207,0,U,51850,999,672,0,.107E-5,0
ZHONGXING-6D,2022-038A,2026-06-29T21:07:53.668128,1.00272971,.00003959,0.0165,74.2009,122.3414,163.4517,0,U,52255,999,1555,0,-.343E-5,0
CMS-02 (GSAT-24),2022-067A,2026-06-29T04:14:58.480800,1.00271288,.0001521,0.0351,252.6973,130.3221,40.9976,0,U,52903,999,1472,0,-.153E-5,0
SES-22,2022-071A,2026-06-30T16:50:17.583360,1.00271930,.00013145,0.0177,11.0684,80.7890,300.4685,0,U,52933,999,765,0,.115E-5,0
WFOV (USA 332),2022-073A,2026-06-30T12:55:57.381312,1.00268758,.00016109,3.7434,78.3653,259.0937,254.3836,0,U,52940,999,1450,0,-.354E-5,0
ZHONGXING-1E,2022-112A,2026-06-30T14:27:46.798272,1.00271554,.00001072,0.0410,153.7791,110.2484,313.0045,0,U,53813,999,1398,0,-.139E-5,0
SES-20,2022-123A,2026-06-30T14:22:23.676960,1.00269721,.00021673,0.0202,59.4918,39.9780,291.6770,0,U,53960,999,1366,0,-.9E-6,0
SES-21,2022-123B,2026-06-29T23:46:01.641792,1.00268246,.00008865,0.0399,24.7137,72.6667,46.2618,0,U,53961,999,734,0,0,0
GALAXY 33 (G-33),2022-128A,2026-06-30T16:51:54.926784,1.00272821,.00020707,0.0151,14.5426,82.5209,301.6861,0,U,54026,999,1387,0,.89E-6,0
GALAXY 34 (G-34),2022-128B,2026-06-30T16:53:02.319648,1.00274607,.00019188,0.0275,18.0703,90.3855,294.5804,0,U,54027,999,1404,0,0,0
